ONEWEB-0534             
1 55797U 23029B   24061.73802018  .00000027  00000+0  33707-4 0  9993
2 55797  87.9128  81.1513 0002150  88.7871 271.3509 13.20771405 50604
ONEWEB-0556             
1 55798U 23029C   24061.74433197  .00000018  00000+0  11873-4 0  9993
2 55798  87.9128  81.1437 0002900  94.6692 265.4773 13.20768160 50601
ONEWEB-0562             
1 55799U 23029D   24061.80747721  .00000026  00000+0  32308-4 0  9997
2 55799  87.9128  81.1209 0002897 109.3349 250.8097 13.20771838 50611
ONEWEB-0564             
1 55801U 23029F   24061.56757177  .00000034  00000+0  50453-4 0  9990
2 55801  87.9129  81.1681 0002028 105.5625 254.5733 13.20772177 51291
ONEWEB-0639             
1 55803U 23029H   24061.63543748  .00000045  00000+0  80244-4 0  9990
2 55803  87.9142 111.7004 0002253  56.8774 303.2575 13.19725422 48437
ONEWEB-0640             
1 55804U 23029J   24061.65024239 -.00000090  00000+0 -27749-3 0  9994
2 55804  87.8906  96.4511 0002761  83.1864 276.9580 13.14503908 49389
